*******************************************************************************
JPL/HORIZONS               38628 Huya (2000 EB173)         2014-May-29 12:57:40
Rec #: 38628 (+COV)   Soln.date: 2014-May-15_22:15:44    # obs: 151 (1996-2014)
 
FK5/J2000.0 helio. ecliptic osc. elements (au, days, deg., period=Julian yrs): 
 
  EPOCH=  2453597.5 ! 2005-Aug-15.00 (CT)          Residual RMS= .40532        
   EC= .2818330303172661   QR= 28.55501388169805   TP= 2456978.0879121586      
   OM= 169.2609610981086   W=  67.32106576768429   IN= 15.45383710663083       
   A= 39.76096797422033    MA= 346.7104313443479   ADIST= 50.96692206674261    
   PER= 250.72269          N= .003931141           ANGMOM= .104073068          
   DAN= 33.01515           DDN= 41.06512           L= 235.8217211              
   B= 14.2326062           MOID= 27.57589912       TP= 2014-Nov-16.5879121586  
 
Asteroid physical parameters (km, seconds, rotational period in hours):        
   GM= n.a.                RAD= n.a.               ROTPER= 13.5                
   H= 4.9                  G= .150                 B-V= n.a.                   
                           ALBEDO= n.a.            STYP= n.a.                  
 
ASTEROID comments: 
1: soln ref.= JPL#21, OCC=2
2: source=ORB
*******************************************************************************
 

 

*******************************************************************************
Ephemeris / WWW_USER Thu May 29 12:57:40 2014 Pasadena, USA      / Horizons    
*******************************************************************************
Target body name: 38628 Huya (2000 EB173)         {source: JPL#21}
Center body name: Earth (399)                     {source: DE-0431LE-0431}
Center-site name: San Pedro Martir
*******************************************************************************
Start time      : A.D. 2014-Jan-01 00:00:00.0000 UT      
Stop  time      : A.D. 2016-Dec-31 00:00:00.0000 UT      
Step-size       : 1440 minutes
*******************************************************************************
Target pole/equ : No model available
Target radii    : (unavailable)                                                
Center geodetic : 244.536700,31.0434585,2.8281109 {E-lon(deg),Lat(deg),Alt(km)}
Center cylindric: 244.536700,5471.93108,3271.4810 {E-lon(deg),Dxy(km),Dz(km)}
Center pole/equ : High-precision EOP model        {East-longitude +}
Center radii    : 6378.1 x 6378.1 x 6356.8 km     {Equator, meridian, pole}    
Target primary  : Sun
Vis. interferer : MOON (R_eq= 1737.400) km        {source: DE-0431LE-0431}
Rel. light bend : Sun, EARTH                      {source: DE-0431LE-0431}
Rel. lght bnd GM: 1.3271E+11, 3.9860E+05 km^3/s^2                              
Small-body perts: Yes                             {source: SB431-BIG16}
Atmos refraction: NO (AIRLESS)
RA format       : DEG
Time format     : BOTH
EOP file        : eop.140528.p140819                                           
EOP coverage    : DATA-BASED 1962-JAN-20 TO 2014-MAY-28. PREDICTS-> 2014-AUG-18
Units conversion: 1 au= 149597870.700 km, c= 299792.458 km/s, 1 day= 86400.0 s 
Table cut-offs 1: Elevation (-90.0deg=NO ),Airmass (>38.000=NO), Daylight (NO )
Table cut-offs 2: Solar Elongation (  0.0,180.0=NO ),Local Hour Angle( 0.0=NO )
*******************************************************************************
Initial FK5/J2000.0 heliocentric ecliptic osculating elements (au, days, deg.):
  EPOCH=  2453597.5 ! 2005-Aug-15.00 (CT)          Residual RMS= .40532        
   EC= .2818330303172661   QR= 28.55501388169805   TP= 2456978.0879121586      
   OM= 169.2609610981086   W=  67.32106576768429   IN= 15.45383710663083       
Asteroid physical parameters (km, seconds, rotational period in hours):        
   GM= n.a.                RAD= n.a.               ROTPER= 13.5                
   H= 4.9                  G= .150                 B-V= n.a.                   
                           ALBEDO= n.a.            STYP= n.a.                  
*******************************************************************************
 Date__(UT)__HR:MN Date_________JDUT     R.A._(J2000.0)_DEC.
************************************************************
$$SOE
 2016-Jul-29 00:00 2457598.500000000 *   239.52964  -5.28488
 2016-Jul-30 00:00 2457599.500000000 *   239.52287  -5.29114
 2016-Jul-31 00:00 2457600.500000000 *   239.51662  -5.29756
 2016-Aug-01 00:00 2457601.500000000 *m  239.51090  -5.30414
 2016-Aug-02 00:00 2457602.500000000 *m  239.50573  -5.31088
 2016-Aug-03 00:00 2457603.500000000 *m  239.50109  -5.31777
 2016-Aug-04 00:00 2457604.500000000 *m  239.49700  -5.32482
 2016-Aug-05 00:00 2457605.500000000 *m  239.49346  -5.33202
 2016-Aug-06 00:00 2457606.500000000 *m  239.49046  -5.33936
 2016-Aug-07 00:00 2457607.500000000 *m  239.48802  -5.34686
 2016-Aug-08 00:00 2457608.500000000 *m  239.48613  -5.35449
 2016-Aug-09 00:00 2457609.500000000 *m  239.48479  -5.36227
 2016-Aug-10 00:00 2457610.500000000 *m  239.48401  -5.37019
 2016-Aug-11 00:00 2457611.500000000 *m  239.48379  -5.37825
 2016-Aug-12 00:00 2457612.500000000 *m  239.48412  -5.38644
 2016-Aug-13 00:00 2457613.500000000 *m  239.48502  -5.39477
 2016-Aug-14 00:00 2457614.500000000 *m  239.48647  -5.40323
 2016-Aug-15 00:00 2457615.500000000 *m  239.48848  -5.41181
 2016-Aug-16 00:00 2457616.500000000 *   239.49106  -5.42052
 2016-Aug-17 00:00 2457617.500000000 *   239.49419  -5.42935
 2016-Aug-18 00:00 2457618.500000000 *   239.49788  -5.43830
 2016-Aug-19 00:00 2457619.500000000 *   239.50214  -5.44737
 2016-Aug-20 00:00 2457620.500000000 *   239.50695  -5.45656
 2016-Aug-21 00:00 2457621.500000000 *   239.51233  -5.46586
 2016-Aug-22 00:00 2457622.500000000 *   239.51826  -5.47527
 2016-Aug-23 00:00 2457623.500000000 *   239.52476  -5.48479
 2016-Aug-24 00:00 2457624.500000000 *   239.53182  -5.49442
 2016-Aug-25 00:00 2457625.500000000 *   239.53944  -5.50415
 2016-Aug-26 00:00 2457626.500000000 *   239.54762  -5.51398
 2016-Aug-27 00:00 2457627.500000000 *   239.55637  -5.52391
 2016-Aug-28 00:00 2457628.500000000 *   239.56568  -5.53393
 2016-Aug-29 00:00 2457629.500000000 *   239.57555  -5.54406
 2016-Aug-30 00:00 2457630.500000000 *m  239.58598  -5.55427
 2016-Aug-31 00:00 2457631.500000000 *m  239.59697  -5.56456
 2016-Sep-01 00:00 2457632.500000000 *m  239.60851  -5.57495
 2016-Sep-02 00:00 2457633.500000000 *m  239.62062  -5.58541
 2016-Sep-03 00:00 2457634.500000000 *m  239.63328  -5.59596
 2016-Sep-04 00:00 2457635.500000000 *m  239.64649  -5.60658
 2016-Sep-05 00:00 2457636.500000000 *m  239.66025  -5.61728
 2016-Sep-06 00:00 2457637.500000000 *m  239.67456  -5.62804
 2016-Sep-07 00:00 2457638.500000000 *m  239.68941  -5.63887
 2016-Sep-08 00:00 2457639.500000000 *m  239.70481  -5.64977
 2016-Sep-09 00:00 2457640.500000000 *m  239.72074  -5.66073
 2016-Sep-10 00:00 2457641.500000000 *m  239.73721  -5.67174
 2016-Sep-11 00:00 2457642.500000000 *m  239.75420  -5.68281
 2016-Sep-12 00:00 2457643.500000000 *m  239.77173  -5.69393
 2016-Sep-13 00:00 2457644.500000000 *m  239.78978  -5.70510
 2016-Sep-14 00:00 2457645.500000000 *m  239.80835  -5.71632
 2016-Sep-15 00:00 2457646.500000000 *   239.82743  -5.72758
 2016-Sep-16 00:00 2457647.500000000 *   239.84703  -5.73888
 2016-Sep-17 00:00 2457648.500000000 *   239.86713  -5.75022
 2016-Sep-18 00:00 2457649.500000000 *   239.88774  -5.76159
 2016-Sep-19 00:00 2457650.500000000 *   239.90885  -5.77300
 2016-Sep-20 00:00 2457651.500000000 *   239.93046  -5.78443
 2016-Sep-21 00:00 2457652.500000000 *   239.95256  -5.79589
 2016-Sep-22 00:00 2457653.500000000 *   239.97515  -5.80737
 2016-Sep-23 00:00 2457654.500000000 *   239.99824  -5.81887
 2016-Sep-24 00:00 2457655.500000000 *   240.02180  -5.83039
 2016-Sep-25 00:00 2457656.500000000 *   240.04585  -5.84193
 2016-Sep-26 00:00 2457657.500000000 *   240.07037  -5.85348
 2016-Sep-27 00:00 2457658.500000000 *   240.09536  -5.86503
 2016-Sep-28 00:00 2457659.500000000 *   240.12082  -5.87659
 2016-Sep-29 00:00 2457660.500000000 *m  240.14673  -5.88816
 2016-Sep-30 00:00 2457661.500000000 *m  240.17311  -5.89972
 2016-Oct-01 00:00 2457662.500000000 *m  240.19993  -5.91127
 2016-Oct-02 00:00 2457663.500000000 *m  240.22720  -5.92283
 2016-Oct-03 00:00 2457664.500000000 *m  240.25490  -5.93436
 2016-Oct-04 00:00 2457665.500000000 *m  240.28304  -5.94589
 2016-Oct-05 00:00 2457666.500000000 *m  240.31160  -5.95740
 2016-Oct-06 00:00 2457667.500000000 *m  240.34058  -5.96889
 2016-Oct-07 00:00 2457668.500000000 *m  240.36997  -5.98036
 2016-Oct-08 00:00 2457669.500000000 *m  240.39977  -5.99180
 2016-Oct-09 00:00 2457670.500000000 *m  240.42997  -6.00321
 2016-Oct-10 00:00 2457671.500000000 *m  240.46056  -6.01459
 2016-Oct-11 00:00 2457672.500000000 *m  240.49154  -6.02593
 2016-Oct-12 00:00 2457673.500000000 *m  240.52289  -6.03724
 2016-Oct-13 00:00 2457674.500000000 *m  240.55461  -6.04851
 2016-Oct-14 00:00 2457675.500000000 *m  240.58670  -6.05973
 2016-Oct-15 00:00 2457676.500000000 *   240.61915  -6.07091
 2016-Oct-16 00:00 2457677.500000000 *   240.65195  -6.08203
 2016-Oct-17 00:00 2457678.500000000 *   240.68509  -6.09311
 2016-Oct-18 00:00 2457679.500000000 *   240.71857  -6.10413
 2016-Oct-19 00:00 2457680.500000000 *   240.75239  -6.11509
 2016-Oct-20 00:00 2457681.500000000 *   240.78653  -6.12600
 2016-Oct-21 00:00 2457682.500000000 *   240.82099  -6.13684
 2016-Oct-22 00:00 2457683.500000000 *   240.85576  -6.14762
 2016-Oct-23 00:00 2457684.500000000 *   240.89084  -6.15832
 2016-Oct-24 00:00 2457685.500000000 *   240.92622  -6.16896
 2016-Oct-25 00:00 2457686.500000000 *   240.96189  -6.17953
 2016-Oct-26 00:00 2457687.500000000 *   240.99785  -6.19001
 2016-Oct-27 00:00 2457688.500000000 *   241.03408  -6.20042
 2016-Oct-28 00:00 2457689.500000000 *   241.07058  -6.21075
 2016-Oct-29 00:00 2457690.500000000 *m  241.10733  -6.22099
 2016-Oct-30 00:00 2457691.500000000 *m  241.14435  -6.23115
